ASTRA 2E                
1 39285U 13056A   26190.28934493  .00000164  00000+0  00000+0 0  9991
2 39285   0.0649 326.2841 0002578 150.9574 302.6331  1.00270875 46634
FM-6                    
1 39360U 13058A   26189.61167403  .00000000  00000+0  00000+0 0  9990
2 39360   0.0459  69.0588 0002607 113.2194 208.1550  1.00271072 46284
RADUGA-1M 3             
1 39375U 13062A   26190.28794834  .00000161  00000+0  00000+0 0  9998
2 39375   6.0111  72.0706 0001786 270.1375  83.6697  1.00272902 46324
SES-8                   
1 39460U 13071A   26190.15461391 -.00000255  00000+0  00000+0 0  9993
2 39460   0.0524 264.4962 0002708 205.4114 327.8449  1.00269823 44648
INMARSAT 5-F1           
1 39476U 13073A   26189.79709856  .00000042  00000+0  00000+0 0  9994
2 39476   0.0194  37.9947 0000761 288.2995 310.0425  1.00271189 45790
TKSAT-1 (TUPAC KATARI)  
1 39481U 13075A   26190.26637815 -.00000181  00000+0  00000+0 0  9996
2 39481   0.0454 118.0564 0002444 352.0889 185.7621  1.00272584 45822
EXPRESS-AM5             
1 39487U 13077A   26189.88367227 -.00000266  00000+0  00000+0 0  9991
2 39487   0.0245 284.0004 0000046 199.4179 261.5645  1.00270143 46571
GSAT-14                 
1 39498U 14001A   26190.17128253  .00000000  00000+0  00000+0 0  9994
2 39498   0.0161  25.8502 0001822 188.9986 207.8993  1.00270034 45595
THAICOM 6               
1 39500U 14002A   26190.01404814 -.00000106  00000+0  00000+0 0  9990
2 39500   0.0382 127.5581 0004585 355.2200 247.7154  1.00268615 45671
TDRS 12                 
1 39504U 14004A   26190.31642144 -.00000259  00000+0  00000+0 0  9998
2 39504   3.9984  19.4304 0004174 203.5191 137.3151  1.00274611 44498
ABS-2                   
1 39508U 14006A   26189.87084553 -.00000072  00000+0  00000+0 0  9990
2 39508   0.0380  79.1707 0003413  13.1509 222.9149  1.00271157 45494
ATHENA-FIDUS            
1 39509U 14006B   26190.28850230  .00000000  00000+0  00000+0 0  9991
2 39509   0.0212  61.3363 0001207  66.9390 300.6143  1.00272998 45305
TURKSAT 4A              
1 39522U 14007A   26190.22068021  .00000160  00000+0  00000+0 0  9997
2 39522   0.0716 284.1369 0001042 329.6856 154.7671  1.00271223 45183
EXPRESS-AT1             
1 39612U 14010A   26190.02683689  .00000013  00000+0  00000+0 0  9999
2 39612   0.3103  85.5398 0004550  51.5229 224.6326  1.00308518 45039
EXPRESS-AT2             
1 39613U 14010B   26190.00962811  .00000093  00000+0  00000+0 0  9993
2 39613   0.0149 337.5527 0000358 306.2340  62.6296  1.00270758 44711
AMAZONAS 4A             
1 39616U 14011A   26190.26906483 -.00000239  00000+0  00000+0 0  9991
2 39616   0.0615 204.9707 0004632 289.5375 175.5806  1.00271589 44937
ASTRA 5B                
1 39617U 14011B   26190.28864119  .00000151  00000+0  00000+0 0  9995
2 39617   0.0646 311.6431 0001830 162.4981 300.4906  1.00271384 44888
IRNSS-1B                
1 39635U 14017A   26188.72624309  .00000141  00000+0  00000+0 0  9991
2 39635  28.8900 240.0484 0022944 195.8882 166.2518  1.00273395 45007
LUCH-5V                 
1 39727U 14023A   26189.85233375 -.00000257  00000+0  00000+0 0  9993
2 39727   5.1830  69.5287 0002698  69.4492 189.3250  1.00267122 44572
KAZSAT-3                
1 39728U 14023B   26190.17475156  .00000074  00000+0  00000+0 0  9992
2 39728   0.0098  19.0838 0000242 235.4305 154.0202  1.00272368 42679
EUTELSAT 3B             
1 39773U 14030A   26190.21305350  .00000034  00000+0  00000+0 0  9999
2 39773   0.0625 345.9572 0003854 124.8236 256.1926  1.00274268 44284
ASIASAT 8 (AMOS-7)      
1 40107U 14046A   26190.30449299 -.00000319  00000+0  00000+0 0  9997
2 40107   0.0125 317.9390 0001365 155.6626  28.5735  1.00270423102372
ASIASAT 6               
1 40141U 14052A   26190.30743966  .00000000  00000+0  00000+0 0  9996
2 40141   0.0215  23.6249 0000817 142.3711 351.8427  1.00267910 43307
OPTUS 10                
1 40146U 14054A   26190.18378002 -.00000134  00000+0  00000+0 0  9993
2 40146   0.1093 329.6640 0001830 129.4682  50.1489  1.00268724 43255
MEASAT-3B               
1 40147U 14054B   26190.30171964 -.00000228  00000+0  00000+0 0  9990
2 40147   0.0329  37.9443 0003556  26.5891  62.8226  1.00271333 43139
HIMAWARI-8              
1 40267U 14060A   26190.29558601 -.00000262  00000+0  00000+0 0  9993
2 40267   0.0325 285.2264 0000822 201.2262  47.8518  1.00269694 42980
IRNSS-1C                
1 40269U 14061A   26190.30017832 -.00000154  00000+0  00000+0 0  9994
2 40269   6.5725  88.5105 0022139   4.7824  25.0275  1.00273284 42911
INTELSAT 30 (IS-30)     
1 40271U 14062A   26190.26490480 -.00000137  00000+0  00000+0 0  9998
2 40271   0.0203  52.8186 0001154 336.9235 257.7777  1.00270721  7013
ARSAT 1                 
1 40272U 14062B   26190.26949816 -.00000246  00000+0  00000+0 0  9992
2 40272   0.0505 281.1701 0001738 185.5292 205.7240  1.00270703 42846
EUTELSAT 53A            
1 40277U 14064A   26190.22293355  .00000112  00000+0  00000+0 0  9996
2 40277   0.0176 302.9722 0001702 254.6454 222.8049  1.00271700 41786
GSAT-16                 
1 40332U 14078A   26190.00945478  .00000099  00000+0  00000+0 0  9993
2 40332   0.0308 275.6320 0007374 175.6902 254.1067  1.00271508 42321
DIRECTV 14              
1 40333U 14078B   26189.60473888 -.00000111  00000+0  00000+0 0  9995
2 40333   0.0094  27.8117 0000391 314.0682  63.1432  1.00270853 42259
