OBJECT_NAME,OBJECT_ID,EPOCH,MEAN_MOTION,ECCENTRICITY,INCLINATION,RA_OF_ASC_NODE,ARG_OF_PERICENTER,MEAN_ANOMALY,EPHEMERIS_TYPE,CLASSIFICATION_TYPE,NORAD_CAT_ID,ELEMENT_SET_NO,REV_AT_EPOCH,BSTAR,MEAN_MOTION_DOT,MEAN_MOTION_DDOT
ASTRA 2E,2013-056A,2026-07-09T06:56:39.401952,1.00270875,.00025789,0.0649,326.2841,150.9574,302.6331,0,U,39285,999,4663,0,.164E-5,0
FM-6,2013-058A,2026-07-08T14:40:48.636192,1.00271072,.00026079,0.0459,69.0588,113.2194,208.1550,0,U,39360,999,4628,0,0,0
RADUGA-1M 3,2013-062A,2026-07-09T06:54:38.736576,1.00272902,.00017866,6.0111,72.0706,270.1375,83.6697,0,U,39375,999,4632,0,.161E-5,0
SES-8,2013-071A,2026-07-09T03:42:38.641824,1.00269823,.00027087,0.0524,264.4962,205.4114,327.8449,0,U,39460,999,4464,0,-.255E-5,0
INMARSAT 5-F1,2013-073A,2026-07-08T19:07:49.315584,1.00271189,.0000761,0.0194,37.9947,288.2995,310.0425,0,U,39476,999,4579,0,.42E-6,0
TKSAT-1 (TUPAC KATARI),2013-075A,2026-07-09T06:23:35.072160,1.00272584,.00024448,0.0454,118.0564,352.0889,185.7621,0,U,39481,999,4582,0,-.181E-5,0
EXPRESS-AM5,2013-077A,2026-07-08T21:12:29.284128,1.00270143,.00000465,0.0245,284.0004,199.4179,261.5645,0,U,39487,999,4657,0,-.266E-5,0
GSAT-14,2014-001A,2026-07-09T04:06:38.810592,1.00270034,.00018229,0.0161,25.8502,188.9986,207.8993,0,U,39498,999,4559,0,0,0
THAICOM 6,2014-002A,2026-07-09T00:20:13.759296,1.00268615,.00045853,0.0382,127.5581,355.2200,247.7154,0,U,39500,999,4567,0,-.106E-5,0
TDRS 12,2014-004A,2026-07-09T07:35:38.812416,1.00274611,.00041749,3.9984,19.4304,203.5191,137.3151,0,U,39504,999,4449,0,-.259E-5,0
ABS-2,2014-006A,2026-07-08T20:54:01.053792,1.00271157,.00034133,0.0380,79.1707,13.1509,222.9149,0,U,39508,999,4549,0,-.72E-6,0
ATHENA-FIDUS,2014-006B,2026-07-09T06:55:26.598720,1.00272998,.00012071,0.0212,61.3363,66.9390,300.6143,0,U,39509,999,4530,0,0,0
TURKSAT 4A,2014-007A,2026-07-09T05:17:46.770144,1.00271223,.00010423,0.0716,284.1369,329.6856,154.7671,0,U,39522,999,4518,0,.16E-5,0
EXPRESS-AT1,2014-010A,2026-07-09T00:38:38.707296,1.00308518,.00045507,0.3103,85.5398,51.5229,224.6326,0,U,39612,999,4503,0,.13E-6,0
EXPRESS-AT2,2014-010B,2026-07-09T00:13:51.868704,1.00270758,.00003581,0.0149,337.5527,306.2340,62.6296,0,U,39613,999,4471,0,.93E-6,0
AMAZONAS 4A,2014-011A,2026-07-09T06:27:27.201312,1.00271589,.00046321,0.0615,204.9707,289.5375,175.5806,0,U,39616,999,4493,0,-.239E-5,0
ASTRA 5B,2014-011B,2026-07-09T06:55:38.598816,1.00271384,.00018301,0.0646,311.6431,162.4981,300.4906,0,U,39617,999,4488,0,.151E-5,0
IRNSS-1B,2014-017A,2026-07-07T17:25:47.402976,1.00273395,.00229449,28.8900,240.0484,195.8882,166.2518,0,U,39635,999,4500,0,.141E-5,0
LUCH-5V,2014-023A,2026-07-08T20:27:21.636000,1.00267122,.0002698,5.1830,69.5287,69.4492,189.3250,0,U,39727,999,4457,0,-.257E-5,0
KAZSAT-3,2014-023B,2026-07-09T04:11:38.534784,1.00272368,.0000242,0.0098,19.0838,235.4305,154.0202,0,U,39728,999,4267,0,.74E-6,0
EUTELSAT 3B,2014-030A,2026-07-09T05:06:47.822400,1.00274268,.00038548,0.0625,345.9572,124.8236,256.1926,0,U,39773,999,4428,0,.34E-6,0
ASIASAT 8 (AMOS-7),2014-046A,2026-07-09T07:18:28.194336,1.00270423,.00013656,0.0125,317.9390,155.6626,28.5735,0,U,40107,999,10237,0,-.319E-5,0
ASIASAT 6,2014-052A,2026-07-09T07:22:42.786624,1.00267910,.0000817,0.0215,23.6249,142.3711,351.8427,0,U,40141,999,4330,0,0,0
OPTUS 10,2014-054A,2026-07-09T04:24:38.593728,1.00268724,.00018307,0.1093,329.6640,129.4682,50.1489,0,U,40146,999,4325,0,-.134E-5,0
MEASAT-3B,2014-054B,2026-07-09T07:14:28.576896,1.00271333,.00035568,0.0329,37.9443,26.5891,62.8226,0,U,40147,999,4313,0,-.228E-5,0
HIMAWARI-8,2014-060A,2026-07-09T07:05:38.631264,1.00269694,.00008223,0.0325,285.2264,201.2262,47.8518,0,U,40267,999,4298,0,-.262E-5,0
IRNSS-1C,2014-061A,2026-07-09T07:12:15.406848,1.00273284,.00221392,6.5725,88.5105,4.7824,25.0275,0,U,40269,999,4291,0,-.154E-5,0
INTELSAT 30 (IS-30),2014-062A,2026-07-09T06:21:27.774720,1.00270721,.00011543,0.0203,52.8186,336.9235,257.7777,0,U,40271,999,701,0,-.137E-5,0
ARSAT 1,2014-062B,2026-07-09T06:28:04.641024,1.00270703,.0001738,0.0505,281.1701,185.5292,205.7240,0,U,40272,999,4284,0,-.246E-5,0
EUTELSAT 53A,2014-064A,2026-07-09T05:21:01.458720,1.00271700,.00017025,0.0176,302.9722,254.6454,222.8049,0,U,40277,999,4178,0,.112E-5,0
GSAT-16,2014-078A,2026-07-09T00:13:36.892992,1.00271508,.00073749,0.0308,275.6320,175.6902,254.1067,0,U,40332,999,4232,0,.99E-6,0
DIRECTV 14,2014-078B,2026-07-08T14:30:49.439232,1.00270853,.00003913,0.0094,27.8117,314.0682,63.1432,0,U,40333,999,4225,0,-.111E-5,0
